[Satellite]
VERSION=1.1
NAME=GSAT0104 (PRN E20)
NICKNAME=GSAT0104 (PRN E20)
TLE1=1 38858U 12055B   19315.71958046  .00000088  00000-0  00000-0 0  9990
TLE2=2 38858  54.9462 167.8043 0000192 349.8290  10.2804  1.70473909 44081
STATUS=0
